OPS 6582 (TRANSIT 5B-5) 
1 00965U 64083D   23141.17400299  .00000070  00000+0  85857-4 0  9997
2 00965  90.0354 196.5895 0039771 324.1673  89.0549 13.56823243891313
OSCAR 7 (AO-7)          
1 07530U 74089B   23141.47772145 -.00000049  00000+0 -20578-4 0  9991
2 07530 101.9462 127.9758 0012577 113.8429  55.5344 12.53664267219829
UOSAT 2 (UO-11)         
1 14781U 84021B   23141.43953636  .00001682  00000+0  20402-3 0  9993
2 14781  97.6561 119.4108 0006682 295.4807  64.5717 14.84823883 90174
NOAA 9                  
1 15427U 84123A   23141.50996257  .00000197  00000+0  12248-3 0  9997
2 15427  99.0885 125.0185 0013831 289.5273 181.7391 14.16359386984461
LUSAT (LO-19)           
1 20442U 90005G   23141.50317732  .00000220  00000+0  96901-4 0  9997
2 20442  98.8424 117.4516 0010597 255.9532 104.0473 14.33251631741524
ITAMSAT (IO-26)         
1 22826U 93061D   23141.56538784  .00000190  00000+0  90343-4 0  9998
2 22826  98.8375 183.8878 0009906 127.7863 232.4218 14.30660016546759
RADIO ROSTO (RS-15)     
1 23439U 94085A   23141.48354015 -.00000054  00000+0 -32915-3 0  9991
2 23439  64.8173 318.8760 0162936 214.9025 144.1128 11.27573999169319
JAS-2 (FO-29)           
1 24278U 96046B   23141.49791332  .00000021  00000+0  54549-4 0  9990
2 24278  98.5272 123.6940 0351047 126.0244 237.3971 13.53144352321326
NOAA 15                 
1 25338U 98030A   23141.56998971  .00000281  00000+0  13498-3 0  9994
2 25338  98.6074 171.0799 0010992  37.6672 322.5276 14.26317988301216
TECHSAT 1B (GO-32)      
1 25397U 98043D   23141.44735457  .00000118  00000+0  71400-4 0  9995
2 25397  98.8671  98.6757 0001115 157.6281 202.4946 14.23871276291524
ISS (ZARYA)             
1 25544U 98067A   23141.70170494  .00014432  00000+0  25984-3 0  9997
2 25544  51.6408  99.8143 0005226   6.3104  53.4122 15.50053388397687
ORSTED                  
1 25635U 99008B   23141.38377567  .00001179  00000+0  28331-3 0  9991
2 25635  96.4604 291.9425 0137131 181.2766 178.8103 14.49016747279202
PHASE 3D (AO-40)        
1 26609U 00072B   23141.01037245 -.00000109  00000+0  00000+0 0  9994
2 26609   5.9586 186.0229 7918600 159.0920 275.8123  1.25587918103393
PCSAT (NO-44)           
1 26931U 01043C   23141.50042597  .00000234  00000+0  12059-3 0  9990
2 26931  67.0512 265.7300 0007762 276.4619  83.5598 14.30913330129764
SAUDISAT 1C (SO-50)     
1 27607U 02058C   23141.56091035  .00001279  00000+0  19269-3 0  9995
2 27607  64.5551 346.5565 0071404 230.0071 129.4750 14.77232551 98296
CUTE-1 (CO-55)          
1 27844U 03031E   23141.45588186  .00000407  00000+0  20106-3 0  9990
2 27844  98.6781 149.1046 0009406 196.0721 164.0160 14.22766181 31938
CUBESAT XI-IV (CO-57)   
1 27848U 03031J   23140.96534379  .00000345  00000+0  17515-3 0  9995
2 27848  98.6818 149.0472 0008967 213.4909 146.5703 14.22278143 31639
MOZHAYETS 4 (RS-22)     
1 27939U 03042A   23141.61857932  .00001437  00000+0  25752-3 0  9999
2 27939  98.2397 288.3866 0011812 215.6751 204.2659 14.68322863 50513
INMARSAT 4-F1           
1 28628U 05009A   23141.53521527 -.00000260  00000+0  00000+0 0  9998
2 28628   3.8903  38.2505 0002592  23.5603 153.2754  1.00271709 66412
NOAA 18                 
1 28654U 05018A   23141.51122303  .00000266  00000+0  16631-3 0  9990
2 28654  98.9098 216.0302 0015412  96.0593 264.2336 14.12938196927715
CUBESAT XI-V            
1 28895U 05043F   23141.30924914  .00001910  00000+0  36011-3 0  9991
2 28895  98.1499 273.5822 0016982 153.3981 206.8097 14.65578146936871
METOP-A                 
1 29499U 06044A   23141.58129453  .00002065  00000+0  27510-3 0  9995
2 29499  98.4014 201.2845 0194798  26.9354 106.0016 14.68511503860271
CARTOSAT-2 (IRS-P7)     
1 29710U 07001B   23141.33689838  .00034828  00000+0  49832-3 0  9999
2 29710  97.8893 276.0050 0100795 298.1787  60.9310 15.50295907888140
CAPE-1                  
1 31130U 07012P   23141.40185783  .00002170  00000+0  45296-3 0  9993
2 31130  98.3070  85.4984 0092528 326.7395  32.8009 14.58304697854327
CARTOSAT-2A             
1 32783U 08021A   23141.49596915  .00001157  00000+0  16471-3 0  9998
2 32783  97.9175 202.3895 0013346 148.9792 211.2210 14.78669833812880
CUTE-1.7+APD II (CO-65) 
1 32785U 08021C   23141.37427668  .00004275  00000+0  42548-3 0  9993
2 32785  97.7044 107.9108 0011997 184.4063 175.7052 14.92102644816822
COMPASS-1               
1 32787U 08021E   23141.45281626  .00009012  00000+0  71093-3 0  9997
2 32787  97.5921 118.5439 0013804 110.0327 250.2384 15.00880925818642
AAUSAT-II               
1 32788U 08021F   23141.46520942  .00010689  00000+0  78877-3 0  9995
2 32788  97.5607 121.4937 0011022  88.2148 272.0340 15.03398904819095
DELFI-C3 (DO-64)        
1 32789U 08021G   23141.05278010  .00057709  00000+0  17503-2 0  9999
2 32789  97.3044 162.7781 0007147 190.7776 169.3315 15.33890769823222
SEEDS II (CO-66)        
1 32791U 08021J   23141.39405488  .00007031  00000+0  62387-3 0  9994
2 32791  97.6541 113.2022 0013525 135.7248 224.5057 14.96413358817659
YUBILEINY (RS-30)       
1 32953U 08025A   23141.48451507  .00000025  00000+0  10829-3 0  9991
2 32953  82.5021 333.7091 0018723 241.7990 118.1199 12.43123771680196
FENGYUN 3A              
1 32958U 08026A   23141.48505074  .00000161  00000+0  97642-4 0  9996
2 32958  98.5537  96.2159 0009674 121.8797 238.3322 14.18867871776159
PRISM (HITOMI)          
1 33493U 09002B   23141.48208879  .00010696  00000+0  73644-3 0  9998
2 33493  98.2461 154.1411 0018084 132.4180 227.8578 15.05945923779725
STARS (KUKAI)           
1 33498U 09002G   23141.54084366  .00003307  00000+0  42461-3 0  9997
2 33498  98.1384  43.9668 0008932 236.1142 123.9221 14.81885609771464
KKS-1 (KISEKI)          
1 33499U 09002H   23141.56905909  .00001470  00000+0  21607-3 0  9993
2 33499  98.1760  33.5430 0007848 320.6922  39.3717 14.77008726770130
NOAA 19                 
1 33591U 09005A   23141.55229501  .00000254  00000+0  16176-3 0  9999
2 33591  99.1015 187.0513 0013066 321.3109  38.7125 14.12756209735927
SWISSCUBE               
1 35932U 09051B   23141.42053867  .00001254  00000+0  28551-3 0  9998
2 35932  98.5246  11.1405 0008783  88.5113 271.7090 14.57675089725318
BEESAT-1                
1 35933U 09051C   23141.58668944  .00001049  00000+0  24109-3 0  9991
2 35933  98.5174  12.6643 0006995  98.4177 261.7814 14.57589830725414
ITUPSAT1                
1 35935U 09051E   23141.19744585  .00001002  00000+0  23531-3 0  9993
2 35935  98.5275  12.2211 0009222 104.0642 256.1581 14.56642462725039
XIWANG-1 (HOPE-1)       
1 36122U 09072B   23141.48478259 -.00000028  00000+0  40148-4 0  9991
2 36122 100.2363 106.2058 0006802 286.4084  73.6282 13.16382711645287
CARTOSAT-2B             
1 36795U 10035A   23141.53332500  .00001102  00000+0  15730-3 0  9993
2 36795  97.9119 202.3412 0012361 226.1177 133.9014 14.78664631693949
TISAT 1                 
1 36799U 10035E   23141.19401441  .00006711  00000+0  60182-3 0  9992
2 36799  98.1406   9.7720 0012912  67.6240 292.6347 14.96053465698198
FENGYUN 3B              
1 37214U 10059A   23141.54875468  .00000111  00000+0  82123-4 0  9992
2 37214  99.0849 158.4680 0023171 120.1652  31.2859 14.14338590648702
JUGNU                   
1 37839U 11058B   23141.56818267  .00000508  00000+0  12753-3 0  9992
2 37839  19.9613 284.4368 0018815 285.7604 149.6152 14.12953229600014
SRMSAT                  
1 37841U 11058D   23140.98446002  .00000508  00000+0  13366-3 0  9995
2 37841  19.9735  14.4915 0011902  93.2711 294.9569 14.10892556598961
M-CUBED & EXP-1 PRIME   
1 37855U 11061F   23141.38313948  .00024356  00000+0  78803-3 0  9995
2 37855 101.7063  88.0735 0123132 122.0261 239.2993 15.24983090632475
HORYU-2                 
1 38340U 12025D   23141.19089941  .00003216  00000+0  44829-3 0  9991
2 38340  98.1700 229.4617 0010188 218.4458 141.6028 14.78429637582105
METOP-B                 
1 38771U 12049A   23141.57560132  .00000186  00000+0  10496-3 0  9999
2 38771  98.6799 201.3927 0001663  98.7438  38.2867 14.21513029553774
SARAL                   
1 39086U 13009A   23141.55181631  .00000150  00000+0  71879-4 0  9991
2 39086  98.5480 327.2299 0002293  37.4782 322.6561 14.32192007534874
AAUSAT 3                
1 39087U 13009B   23141.46776356  .00000825  00000+0  29392-3 0  9997
2 39087  98.3829 337.3076 0011816 343.8927  16.1882 14.36760650535771
STRAND-1                
1 39090U 13009E   23141.44828795  .00000386  00000+0  14870-3 0  9991
2 39090  98.3898 335.5431 0008728 352.5488   7.5567 14.35584486535889
BRITE-AUSTRIA           
1 39091U 13009F   23141.51457024  .00000242  00000+0  98987-4 0  9996
2 39091  98.3925 334.8305 0010322 357.9344   2.1798 14.35476518535924
UNIBRITE                
1 39092U 13009G   23141.49684194  .00000264  00000+0  10689-3 0  9990
2 39092  98.3963 334.6436 0009127 354.2963   5.8117 14.35348799535876
SOMP                    
1 39134U 13015E   23141.04791721  .00102966  00000+0  13722-2 0  9992
2 39134  64.8511  18.7026 0017298 251.7459 108.1805 15.57400936558754
BEESAT-3                
1 39135U 13015F   23141.18741034  .00047086  00000+0  11197-2 0  9995
2 39135  64.8605  67.5089 0020868 242.3190 117.5830 15.41153495557776
BEESAT-2                
1 39136U 13015G   23141.44134722  .00039059  00000+0  10148-2 0  9991
2 39136  64.8696  77.7984 0026345 276.8593  82.9546 15.38391665557564
NEE-01 PEGASO           
1 39151U 13018B   23141.26264034  .00002976  00000+0  37524-3 0  9997
2 39151  98.0066 251.3932 0015109 236.3620 123.6152 14.82661129543690
CUBEBUG-1 (CAPITAN BETO)
1 39153U 13018D   23141.54806292  .00003563  00000+0  43694-3 0  9996
2 39153  98.0359 257.5858 0014995 228.9526 131.0393 14.83699227543844
ESTCUBE 1               
1 39161U 13021C   23141.13964442  .00002027  00000+0  31394-3 0  9994
2 39161  97.8722 214.1730 0010458  62.5933 297.6338 14.74227593539145
